NORAD_CAT_ID,OBJECT_NAME,OBJECT_TYPE,EPOCH,MEAN_MOTION,ECCENTRICITY,INCLINATION,RA_OF_ASC_NODE,ARG_OF_PERICENTER,MEAN_ANOMALY,BSTAR,MEAN_MOTION_DOT,MEAN_MOTION_DDOT,TLE_LINE0,TLE_LINE1,TLE_LINE2,SEMIMAJOR_AXIS,PERIOD,APOGEE,PERIGEE,DECAYED
52645.0,STARLINK-3973,PAYLOAD,2023-01-26 05:53:48,15.08856698,0.0001293,53.2146,329.8056,97.2014,262.9125,0.00091288,0.00014277,0.0,0 STARLINK-3973,1 52645U 22052AZ  23026.24569682  .00014277  00000-0  91288-3 0  9990,2 52645  53.2146 329.8056 0001293  97.2014 262.9125 15.08856698 39269,6917.829000000001,95.436,540.589,538.8,0.0
52645.0,STARLINK-3973,PAYLOAD,2023-01-27 04:09:12,15.08853139,0.0001147,53.2147,325.6415,91.5132,268.5992,0.00053986,8.317e-05,0.0,0 STARLINK-3973,1 52645U 22052AZ  23027.17305599  .00008317  00000-0  53986-3 0  9999,2 52645  53.2147 325.6415 0001147  91.5132 268.5992 15.08853139 39787,6917.84,95.437,540.499,538.9119999999999,0.0
52645.0,STARLINK-3973,PAYLOAD,2023-01-27 05:44:35,15.08854847,0.0001136,53.2146,325.3438,90.7655,269.3467,0.0005561,8.577e-05,0.0,0 STARLINK-3973,1 52645U 22052AZ  23027.23929497  .00008577  00000-0  55610-3 0  9999,2 52645  53.2146 325.3438 0001136  90.7655 269.3467 15.08854847 39410,6917.835,95.437,540.486,538.914,0.0
52645.0,STARLINK-3973,PAYLOAD,2023-01-28 02:24:36,15.08847592,0.0001062,53.2138,321.4788,84.8808,275.2305,0.00051913,7.985e-05,0.0,0 STARLINK-3973,1 52645U 22052AZ  23028.10041758  .00007985  00000-0  51913-3 0  9995,2 52645  53.2138 321.4788 0001062  84.8808 275.2305 15.08847592 39920,6917.857,95.437,540.457,538.988,0.0
52645.0,STARLINK-3973,PAYLOAD,2023-01-28 05:35:22,15.08850159,0.0001138,53.2142,320.884,87.1778,272.9344,0.0010862,0.00017046,0.0,0 STARLINK-3973,1 52645U 22052AZ  23028.23289839  .00017046  00000-0  10862-2 0  9999,2 52645  53.2142 320.8840 0001138  87.1778 272.9344 15.08850159 39563,6917.849,95.437,540.502,538.927,0.0
52645.0,STARLINK-3973,PAYLOAD,2023-01-29 02:15:23,15.08844671,0.0001091,53.2123,317.0178,74.5596,285.5516,0.0003978,6.05e-05,0.0,0 STARLINK-3973,1 52645U 22052AZ  23029.09401697  .00006050  00000-0  39780-3 0  9996,2 52645  53.2123 317.0178 0001091  74.5596 285.5516 15.08844671 40071,6917.866,95.437,540.486,538.976,0.0
52645.0,STARLINK-3973,PAYLOAD,2023-01-29 18:09:14,15.08839789,0.0001471,53.2137,314.0443,78.2775,281.8382,0.00012812,1.752e-05,0.0,0 STARLINK-3973,1 52645U 22052AZ  23029.75641979  .00001752  00000-0  12812-3 0  9999,2 52645  53.2137 314.0443 0001471  78.2775 281.8382 15.08839789 40175,6917.881,95.438,540.764,538.728,0.0
52645.0,STARLINK-3973,PAYLOAD,2023-01-30 05:16:56,15.08841571,0.0001407,53.2145,311.9627,76.4676,283.6473,8.2908e-05,1.032e-05,0.0,0 STARLINK-3973,1 52645U 22052AZ  23030.22009949  .00001032  00000-0  82908-4 0  9993,2 52645  53.2145 311.9627 0001407  76.4676 283.6473 15.08841571 39860,6917.876,95.437,540.714,538.767,0.0
52645.0,STARLINK-3973,PAYLOAD,2023-01-31 03:32:20,15.0884663,0.0001515,53.2153,307.7996,79.6463,280.47,0.00024523,3.618e-05,0.0,0 STARLINK-3973,1 52645U 22052AZ  23031.14745907  .00003618  00000-0  24523-3 0  9996,2 52645  53.2153 307.7996 0001515  79.6463 280.4700 15.08846630 40388,6917.86,95.437,540.773,538.677,0.0
52645.0,STARLINK-3973,PAYLOAD,2023-01-31 17:50:48,15.08842397,0.0001326,53.2147,305.1227,90.196,269.9184,9.119e-05,1.164e-05,0.0,0 STARLINK-3973,1 52645U 22052AZ  23031.74361890  .00001164  00000-0  91190-4 0  9996,2 52645  53.2147 305.1227 0001326  90.1960 269.9184 15.08842397 40092,6917.873,95.437,540.655,538.821,0.0
52645.0,STARLINK-3973,PAYLOAD,2023-02-01 03:23:07,15.08854332,0.0001286,53.2139,303.3382,89.5087,270.6052,0.0003258,4.903e-05,0.0,0 STARLINK-3973,1 52645U 22052AZ  23032.14105436  .00004903  00000-0  32580-3 0  9994,2 52645  53.2139 303.3382 0001286  89.5087 270.6052 15.08854332 40154,6917.837,95.437,540.591,538.812,0.0
52645.0,STARLINK-3973,PAYLOAD,2023-02-01 17:41:35,15.08837739,0.0001215,53.2151,300.6617,88.3765,271.7366,2.8341e-05,1.63e-06,0.0,0 STARLINK-3973,1 52645U 22052AZ  23032.73722125  .00000163  00000-0  28341-4 0  9994,2 52645  53.2151 300.6617 0001215  88.3765 271.7366 15.08837739 40625,6917.887,95.438,540.593,538.912,0.0
52645.0,STARLINK-3973,PAYLOAD,2023-02-02 03:13:54,15.08841678,0.0001252,53.2131,298.8779,78.2308,281.8825,0.00022,3.215e-05,0.0,0 STARLINK-3973,1 52645U 22052AZ  23033.13466085  .00003215  00000-0  22000-3 0  9995,2 52645  53.2131 298.8779 0001252  78.2308 281.8825 15.08841678 40306,6917.875,95.437,540.606,538.874,0.0
52645.0,STARLINK-3973,PAYLOAD,2023-02-03 03:04:41,15.08857503,0.0001252,53.2134,294.4172,78.4671,281.6461,0.00063765,9.88e-05,0.0,0 STARLINK-3973,1 52645U 22052AZ  23034.12825643  .00009880  00000-0  63765-3 0  9991,2 52645  53.2134 294.4172 0001252  78.4671 281.6461 15.08857503 40839,6917.827,95.436,540.558,538.826,0.0
52645.0,STARLINK-3973,PAYLOAD,2023-02-03 17:23:09,15.0884091,0.0001063,53.2133,291.7414,81.7524,278.3589,6.566e-05,7.57e-06,0.0,0 STARLINK-3973,1 52645U 22052AZ  23034.72442017  .00000757  00000-0  65660-4 0  9998,2 52645  53.2133 291.7414 0001063  81.7524 278.3589 15.08840910 40929,6917.878,95.437,540.478,539.007,0.0
52645.0,STARLINK-3973,PAYLOAD,2023-02-04 02:55:28,15.08845011,0.0001243,53.2132,289.9571,86.5888,273.5246,0.00026394,3.916e-05,0.0,0 STARLINK-3973,1 52645U 22052AZ  23035.12186015  .00003916  00000-0  26394-3 0  9996,2 52645  53.2132 289.9571 0001243  86.5888 273.5246 15.08845011 40606,6917.865,95.437,540.59,538.87,0.0
52645.0,STARLINK-3973,PAYLOAD,2023-02-04 22:00:06,15.08843662,0.0001304,53.2129,286.3887,88.7421,271.3721,0.00020151,2.921e-05,0.0,0 STARLINK-3973,1 52645U 22052AZ  23035.91674095  .00002921  00000-0  20151-3 0  9993,2 52645  53.2129 286.3887 0001304  88.7421 271.3721 15.08843662 40725,6917.869,95.437,540.636,538.832,0.0
52645.0,STARLINK-3973,PAYLOAD,2023-02-05 02:46:15,15.08848491,0.000127,53.213,285.4965,89.6983,270.4154,0.00033438,5.039e-05,0.0,0 STARLINK-3973,1 52645U 22052AZ  23036.11545926  .00005039  00000-0  33438-3 0  9991,2 52645  53.2130 285.4965 0001270  89.6983 270.4154 15.08848491 41130,6917.854,95.437,540.598,538.841,0.0
52645.0,STARLINK-3973,PAYLOAD,2023-02-05 20:15:30,15.0883461,0.0001179,53.2126,282.2251,86.4104,273.7023,6.6929e-05,7.77e-06,0.0,0 STARLINK-3973,1 52645U 22052AZ  23036.84410714  .00000777  00000-0  66929-4 0  9993,2 52645  53.2126 282.2251 0001179  86.4104 273.7023 15.08834610 41247,6917.897,95.438,540.577,538.946,0.0
52645.0,STARLINK-3973,PAYLOAD,2023-02-05 21:50:53,15.08834277,9.92e-05,53.2136,281.9258,80.5703,279.5401,4.1375e-05,3.71e-06,0.0,0 STARLINK-3973,1 52645U 22052AZ  23036.91034574  .00000371  00000-0  41375-4 0  9995,2 52645  53.2136 281.9258 0000992  80.5703 279.5401 15.08834277 40874,6917.898,95.438,540.449,539.077,0.0
52645.0,STARLINK-3973,PAYLOAD,2023-02-06 02:37:03,15.08839614,0.0001073,53.2133,281.0361,93.1824,266.9291,0.00017707,2.531e-05,0.0,0 STARLINK-3973,1 52645U 22052AZ  23037.10906559  .00002531  00000-0  17707-3 0  9999,2 52645  53.2133 281.0361 0001073  93.1824 266.9291 15.08839614 40903,6917.882,95.438,540.489,539.004,0.0
52645.0,STARLINK-3973,PAYLOAD,2023-02-06 20:06:17,15.08848658,0.0001147,53.2128,277.7649,94.5978,265.5145,0.00054195,8.35e-05,0.0,0 STARLINK-3973,1 52645U 22052AZ  23037.83770576  .00008350  00000-0  54195-3 0  9994,2 52645  53.2128 277.7649 0001147  94.5978 265.5145 15.08848658 41019,6917.854,95.437,540.512,538.925,0.0
52645.0,STARLINK-3973,PAYLOAD,2023-02-07 02:27:50,15.08858825,0.000112,53.2124,276.5753,93.5721,266.5399,0.00080059,0.00012483,0.0,0 STARLINK-3973,1 52645U 22052AZ  23038.10266261  .00012483  00000-0  80059-3 0  9996,2 52645  53.2124 276.5753 0001120  93.5721 266.5399 15.08858825 41439,6917.823,95.436,540.463,538.913,0.0
52645.0,STARLINK-3973,PAYLOAD,2023-02-07 21:32:27,15.08835471,0.0001139,53.2116,273.0066,87.0536,273.0586,-0.00070251,-0.00011449,0.0,0 STARLINK-3973,1 52645U 22052AZ  23038.89753750 -.00011449  00000-0 -70251-3 0  9992,2 52645  53.2116 273.0066 0001139  87.0536 273.0586 15.08835471 41175,6917.894,95.438,540.547,538.971,0.0
52645.0,STARLINK-3973,PAYLOAD,2023-02-07 23:07:50,15.08836211,0.0001136,53.2115,272.7091,94.4527,265.6595,-0.00064742,-0.00010576,0.0,0 STARLINK-3973,1 52645U 22052AZ  23038.96377697 -.00010576  00000-0 -64742-3 0  9990,2 52645  53.2115 272.7091 0001136  94.4527 265.6595 15.08836211 41560,6917.892,95.438,540.543,538.971,0.0
52645.0,STARLINK-3973,PAYLOAD,2023-02-08 21:23:15,15.08828919,0.0001279,53.2114,268.5449,78.2884,281.8251,0.00037136,5.625e-05,0.0,0 STARLINK-3973,1 52645U 22052AZ  23039.89114715  .00005625  00000-0  37136-3 0  9997,2 52645  53.2114 268.5449 0001279  78.2884 281.8251 15.08828919 41322,6917.914,95.438,540.664,538.894,0.0
52645.0,STARLINK-3973,PAYLOAD,2023-02-09 21:14:02,15.08845646,0.0001187,53.2116,264.0834,84.6584,275.4543,0.00069198,0.00010744,0.0,0 STARLINK-3973,1 52645U 22052AZ  23040.88475025  .00010744  00000-0  69198-3 0  9993,2 52645  53.2116 264.0834 0001187  84.6584 275.4543 15.08845646 41474,6917.863,95.437,540.549,538.907,0.0
52645.0,STARLINK-3973,PAYLOAD,2023-02-10 00:24:48,15.08853351,0.0001221,53.2112,263.4888,81.1262,278.9868,0.00084484,0.00013188,0.0,0 STARLINK-3973,1 52645U 22052AZ  23041.01722852  .00013188  00000-0  84484-3 0  9992,2 52645  53.2112 263.4888 0001221  81.1262 278.9868 15.08853351 41870,6917.84,95.437,540.549,538.86,0.0
52645.0,STARLINK-3973,PAYLOAD,2023-02-10 21:04:49,15.08856759,0.0001393,53.212,259.6224,75.8822,284.2324,0.00073808,0.00011483,0.0,0 STARLINK-3973,1 52645U 22052AZ  23041.87834706  .00011483  00000-0  73808-3 0  9992,2 52645  53.2120 259.6224 0001393  75.8822 284.2324 15.08856759 42000,6917.829,95.436,540.658,538.731,0.0
52645.0,STARLINK-3973,PAYLOAD,2023-02-11 20:55:36,15.08841782,8.29e-05,53.2129,255.1598,79.9363,280.1722,0.00077668,0.00012095,0.0,0 STARLINK-3973,1 52645U 22052AZ  23042.87195117  .00012095  00000-0  77668-3 0  9997,2 52645  53.2129 255.1598 0000829  79.9363 280.1722 15.08841782 41772,6917.875,95.437,540.313,539.166,0.0
